{
    "links": {
        "self": "http://www.neowsapp.com/rest/v1/neo/54017381?api_key=iIulBulltgU6a56xZRHN4H3l9WmuAYTsLGpBGhQ2"
    },
    "id": "54017381",
    "neo_reference_id": "54017381",
    "name": "(2020 LJ)",
    "designation": "2020 LJ",
    "nasa_jpl_url": "http://ssd.jpl.nasa.gov/sbdb.cgi?sstr=54017381",
    "absolute_magnitude_h": 21.249,
    "estimated_diameter": {
        "kilometers": {
            "estimated_diameter_min": 0.1495391737,
            "estimated_diameter_max": 0.3343797577
        },
        "meters": {
            "estimated_diameter_min": 149.5391737156,
            "estimated_diameter_max": 334.3797577273
        },
        "miles": {
            "estimated_diameter_min": 0.0929193059,
            "estimated_diameter_max": 0.2077738844
        },
        "feet": {
            "estimated_diameter_min": 490.6141026932,
            "estimated_diameter_max": 1097.0464843421
        }
    },
    "is_potentially_hazardous_asteroid": false,
    "close_approach_data": [
        {
            "close_approach_date": "2020-02-08",
            "close_approach_date_full": "2020-Feb-08 23:57",
            "epoch_date_close_approach": 1581206220000,
            "relative_velocity": {
                "kilometers_per_second": "9.6357603394",
                "kilometers_per_hour": "34688.7372217828",
                "miles_per_hour": "21554.2323031683"
            },
            "miss_distance": {
                "astronomical": "0.4472332502",
                "lunar": "173.9737343278",
                "kilometers": "66905141.623097074",
                "miles": "41572927.2423406612"
            },
            "orbiting_body": "Earth"
        },
        {
            "close_approach_date": "2020-06-25",
            "close_approach_date_full": "2020-Jun-25 12:35",
            "epoch_date_close_approach": 1593088500000,
            "relative_velocity": {
                "kilometers_per_second": "15.5043281831",
                "kilometers_per_hour": "55815.5814590084",
                "miles_per_hour": "34681.6317126822"
            },
            "miss_distance": {
                "astronomical": "0.2673018328",
                "lunar": "103.9804129592",
                "kilometers": "39987784.833976136",
                "miles": "24847257.3132012368"
            },
            "orbiting_body": "Earth"
        },
        {
            "close_approach_date": "2157-06-19",
            "close_approach_date_full": "2157-Jun-19 20:53",
            "epoch_date_close_approach": 5915883180000,
            "relative_velocity": {
                "kilometers_per_second": "10.6557678425",
                "kilometers_per_hour": "38360.7642331318",
                "miles_per_hour": "23835.8870869701"
            },
            "miss_distance": {
                "astronomical": "0.3294713633",
                "lunar": "128.1643603237",
                "kilometers": "49288214.175676171",
                "miles": "30626276.1294703198"
            },
            "orbiting_body": "Earth"
        }
    ],
    "orbital_data": {
        "orbit_id": "4",
        "orbit_determination_date": "2020-07-15 06:50:31",
        "first_observation_date": "2020-06-10",
        "last_observation_date": "2020-07-15",
        "data_arc_in_days": 35,
        "observations_used": 38,
        "orbit_uncertainty": "8",
        "minimum_orbit_intersection": ".117014",
        "jupiter_tisserand_invariant": "4.501",
        "epoch_osculation": "2459014.5",
        "eccentricity": ".282305603600667",
        "semi_major_axis": "1.467741404796925",
        "inclination": "20.32795696758107",
        "ascending_node_longitude": "95.39293038425029",
        "orbital_period": "649.4904139619737",
        "perihelion_distance": "1.053389781586038",
        "perihelion_argument": "128.4901140885509",
        "aphelion_distance": "1.882093028007812",
        "perihelion_time": "2458989.522167445409",
        "mean_anomaly": "13.84473046307228",
        "mean_motion": ".5542806980074647",
        "equinox": "J2000",
        "orbit_class": {
            "orbit_class_type": "AMO",
            "orbit_class_description": "Near-Earth asteroid orbits similar to that of 1221 Amor",
            "orbit_class_range": "1.017 AU < q (perihelion) < 1.3 AU"
        }
    },
    "is_sentry_object": false
}